JILIN-1 03              
1 41914U 17002B   26195.93162148  .00007640  00000+0  17968-3 0  9996
2 41914  97.1944 202.6375 0007884  80.1581 280.0556 15.42226770526139
CARTOSAT-2D             
1 41948U 17008A   26195.95294834  .00001332  00000+0  66333-4 0  9992
2 41948  97.4100 254.7373 0006000 139.0958 221.0727 15.19282225521793
CARTOSAT-2E             
1 42767U 17036C   26195.97071193  .00001487  00000+0  73786-4 0  9997
2 42767  97.4266 255.3127 0003206 190.0560 170.0611 15.19251487502364
IRIDIUM 113             
1 42803U 17039A   26195.86869373  .00000019  00000+0 -36881-6 0  9992
2 42803  86.3991 310.6092 0002135  91.7034 268.4406 14.34217283475158
NORSAT 2                
1 42828U 17042D   26195.90016062  .00005679  00000+0  24848-3 0  9990
2 42828  97.4048   8.9128 0008240 319.1051  40.9566 15.22423818491954
TECHNOSAT               
1 42829U 17042E   26195.90714056  .00001771  00000+0  12825-3 0  9990
2 42829  97.4316 352.5168 0017459   4.4535 355.6844 15.05110224490878
FLYING LAPTOP           
1 42831U 17042G   26195.98011823  .00002067  00000+0  16449-3 0  9998
2 42831  97.4798 350.4668 0019720  33.1862 327.0595 15.01312390490625
WNISAT 1R               
1 42835U 17042L   26195.87573648  .00000462  00000+0  39796-4 0  9996
2 42835  97.4821 351.0090 0010910  65.7977 294.4387 15.01858181490665
LEMUR-2-GREENBERG       
1 42837U 17042N   26195.45912462  .00009907  00000+0  32148-3 0  9999
2 42837  97.3823  15.9753 0007194 263.1794  96.8630 15.32137916492567
LEMUR-2-FURIAUS         
1 42840U 17042R   26195.92904001  .00009828  00000+0  32917-3 0  9991
2 42840  97.3766  14.3354 0006064 331.3156  28.7751 15.31125457492454
CORVUS BC2              
1 42846U 17042X   26195.89455596  .00001222  00000+0  86752-4 0  9990
2 42846  97.4091 356.1739 0013482  24.0992 336.0864 15.06455740491230
CORVUS BC1              
1 42847U 17042Y   26195.88611575  .00001235  00000+0  87249-4 0  9997
2 42847  97.4120 356.9976 0011697   1.3518 358.7739 15.06618518491262
VRSS-2                  
1 42954U 17060A   26196.01911230  .00000545  00000+0  76196-4 0  9995
2 42954  97.6502 232.4908 0017501  14.2988 345.8717 14.81238569472576
MOHAMMED VI-A           
1 43005U 17070A   26195.98509426  .00000405  00000+0  64560-4 0  9996
2 43005  97.9556 267.9318 0001214  93.6623 266.4727 14.77102888468084
FENGYUN 3D              
1 43010U 17072A   26195.91437206  .00000095  00000+0  66832-4 0  9992
2 43010  99.0137 170.8401 0001526  14.5399 345.5820 14.19744763448925
NOAA 20 (JPSS-1)        
1 43013U 17073A   26195.91389327  .00000008  00000+0  24774-4 0  9999
2 43013  98.7772 135.1308 0001376 125.0493 235.0812 14.19516415448403
MAKERSAT 0              
1 43016U 17073D   26195.60318523  .00011617  00000+0  30730-3 0  9994
2 43016  97.4584  78.3470 0105407 174.3522 185.8937 15.32992920470669
RADFXSAT (FOX-1B)       
1 43017U 17073E   26195.58998105  .00004198  00000+0  18450-3 0  9993
2 43017  97.4666  62.2466 0148235 233.5986 125.1498 15.13055354469539
JILIN-1 04              
1 43022U 17074A   26195.91097296  .00008474  00000+0  19344-3 0  9992
2 43022  97.4882 306.2784 0005250 100.9197 259.2641 15.43126346478542
JILIN-1 05              
1 43023U 17074B   26195.90808809  .00004813  00000+0  14742-3 0  9992
2 43023  97.4885 302.4468 0006441 125.4440 234.7405 15.34282680478257
JILIN-1 06              
1 43024U 17074C   26195.88393773  .00003484  00000+0  10834-3 0  9990
2 43024  97.4811 299.3948 0008072 135.0410 225.1488 15.33993749478080
IRIDIUM 116             
1 43072U 17083C   26195.84332267  .00000128  00000+0  38542-4 0  9999
2 43072  86.3985 310.4404 0002443  98.6620 261.4852 14.34217711448136
IRIDIUM 130             
1 43073U 17083D   26195.81161358  .00000135  00000+0  40981-4 0  9996
2 43073  86.3993 310.7316 0002249 100.6404 259.5045 14.34217860448079
LKW-2                   
1 43080U 17084A   26195.95318126  .00003618  00000+0  14045-3 0  9997
2 43080  97.1181 234.4546 0003650 119.3446 240.8159 15.26688369475924
SUPERVIEW-1 03          
1 43099U 18002A   26195.91572380  .00011402  00000+0  27501-3 0  9999
2 43099  97.3136 280.7270 0046960  82.0870 278.5703 15.40206863472631
CARTOSAT-2F             
1 43111U 18004A   26195.93739944  .00000968  00000+0  49171-4 0  9992
2 43111  97.4781 255.2988 0002779 135.1979 224.9480 15.19266891471545
LKW-3                   
1 43146U 18006A   26195.94534536  .00007799  00000+0  22675-3 0  9991
2 43146  97.6625 357.6176 0002904 179.9609 180.1635 15.35748357472977
ASNARO-2                
1 43152U 18007A   26195.98878671  .00004842  00000+0  21247-3 0  9994
2 43152  97.3969 202.4818 0001881  93.1038 267.0414 15.22423594471640
