OBJECT_NAME,OBJECT_ID,EPOCH,MEAN_MOTION,ECCENTRICITY,INCLINATION,RA_OF_ASC_NODE,ARG_OF_PERICENTER,MEAN_ANOMALY,EPHEMERIS_TYPE,CLASSIFICATION_TYPE,NORAD_CAT_ID,ELEMENT_SET_NO,REV_AT_EPOCH,BSTAR,MEAN_MOTION_DOT,MEAN_MOTION_DDOT
JILIN-1 03,2017-002B,2026-07-14T22:21:32.095872,15.42226770,.00078846,97.1944,202.6375,80.1581,280.0556,0,U,41914,999,52613,.17968412E-3,.764E-4,0
CARTOSAT-2D,2017-008A,2026-07-14T22:52:14.736576,15.19282225,.00060008,97.4100,254.7373,139.0958,221.0727,0,U,41948,999,52179,.66332677E-4,.1332E-4,0
CARTOSAT-2E,2017-036C,2026-07-14T23:17:49.510752,15.19251487,.00032068,97.4266,255.3127,190.0560,170.0611,0,U,42767,999,50236,.73786491E-4,.1487E-4,0
IRIDIUM 113,2017-039A,2026-07-14T20:50:55.138272,14.34217283,.00021353,86.3991,310.6092,91.7034,268.4406,0,U,42803,999,47515,-.368809E-6,.19E-6,0
NORSAT 2,2017-042D,2026-07-14T21:36:13.877568,15.22423818,.00082403,97.4048,8.9128,319.1051,40.9566,0,U,42828,999,49195,.24847677E-3,.5679E-4,0
TECHNOSAT,2017-042E,2026-07-14T21:46:16.944384,15.05110224,.00174594,97.4316,352.5168,4.4535,355.6844,0,U,42829,999,49087,.12825377E-3,.1771E-4,0
FLYING LAPTOP,2017-042G,2026-07-14T23:31:22.215072,15.01312390,.00197205,97.4798,350.4668,33.1862,327.0595,0,U,42831,999,49062,.16448539E-3,.2067E-4,0
WNISAT 1R,2017-042L,2026-07-14T21:01:03.631872,15.01858181,.00109105,97.4821,351.0090,65.7977,294.4387,0,U,42835,999,49066,.39795659E-4,.462E-5,0
LEMUR-2-GREENBERG,2017-042N,2026-07-14T11:01:08.367168,15.32137916,.00071946,97.3823,15.9753,263.1794,96.8630,0,U,42837,999,49256,.32148482E-3,.9907E-4,0
LEMUR-2-FURIAUS,2017-042R,2026-07-14T22:17:49.056864,15.31125457,.00060642,97.3766,14.3354,331.3156,28.7751,0,U,42840,999,49245,.32916749E-3,.9828E-4,0
CORVUS BC2,2017-042X,2026-07-14T21:28:09.634944,15.06455740,.00134824,97.4091,356.1739,24.0992,336.0864,0,U,42846,999,49123,.86752439E-4,.1222E-4,0
CORVUS BC1,2017-042Y,2026-07-14T21:16:00.400800,15.06618518,.00116976,97.4120,356.9976,1.3518,358.7739,0,U,42847,999,49126,.87249176E-4,.1235E-4,0
VRSS-2,2017-060A,2026-07-15T00:27:31.302720,14.81238569,.00175012,97.6502,232.4908,14.2988,345.8717,0,U,42954,999,47257,.76196135E-4,.545E-5,0
MOHAMMED VI-A,2017-070A,2026-07-14T23:38:32.144064,14.77102888,.00012149,97.9556,267.9318,93.6623,266.4727,0,U,43005,999,46808,.64560326E-4,.405E-5,0
FENGYUN 3D,2017-072A,2026-07-14T21:56:41.745984,14.19744763,.00015261,99.0137,170.8401,14.5399,345.5820,0,U,43010,999,44892,.66831957E-4,.95E-6,0
NOAA 20 (JPSS-1),2017-073A,2026-07-14T21:56:00.378528,14.19516415,.00013765,98.7772,135.1308,125.0493,235.0812,0,U,43013,999,44840,.24774409E-4,.8E-7,0
MAKERSAT 0,2017-073D,2026-07-14T14:28:35.203872,15.32992920,.0105407,97.4584,78.3470,174.3522,185.8937,0,U,43016,999,47066,.3073E-3,.11617E-3,0
RADFXSAT (FOX-1B),2017-073E,2026-07-14T14:09:34.362720,15.13055354,.0148235,97.4666,62.2466,233.5986,125.1498,0,U,43017,999,46953,.1845E-3,.4198E-4,0
JILIN-1 04,2017-074A,2026-07-14T21:51:48.063744,15.43126346,.00052505,97.4882,306.2784,100.9197,259.2641,0,U,43022,999,47854,.19343981E-3,.8474E-4,0
JILIN-1 05,2017-074B,2026-07-14T21:47:38.810976,15.34282680,.00064412,97.4885,302.4468,125.4440,234.7405,0,U,43023,999,47825,.14741991E-3,.4813E-4,0
JILIN-1 06,2017-074C,2026-07-14T21:12:52.219872,15.33993749,.00080729,97.4811,299.3948,135.0410,225.1488,0,U,43024,999,47808,.1083404E-3,.3484E-4,0
IRIDIUM 116,2017-083C,2026-07-14T20:14:23.078688,14.34217711,.00024431,86.3985,310.4404,98.6620,261.4852,0,U,43072,999,44813,.38542333E-4,.128E-5,0
IRIDIUM 130,2017-083D,2026-07-14T19:28:43.413312,14.34217860,.00022498,86.3993,310.7316,100.6404,259.5045,0,U,43073,999,44807,.40981331E-4,.135E-5,0
LKW-2,2017-084A,2026-07-14T22:52:34.860864,15.26688369,.00036508,97.1181,234.4546,119.3446,240.8159,0,U,43080,999,47592,.14045381E-3,.3618E-4,0
SUPERVIEW-1 03,2018-002A,2026-07-14T21:58:38.536320,15.40206863,.00469604,97.3136,280.7270,82.0870,278.5703,0,U,43099,999,47263,.27501071E-3,.11402E-3,0
CARTOSAT-2F,2018-004A,2026-07-14T22:29:51.311616,15.19266891,.00027793,97.4781,255.2988,135.1979,224.9480,0,U,43111,999,47154,.49171374E-4,.968E-5,0
LKW-3,2018-006A,2026-07-14T22:41:17.839104,15.35748357,.00029041,97.6625,357.6176,179.9609,180.1635,0,U,43146,999,47297,.22674978E-3,.7799E-4,0
ASNARO-2,2018-007A,2026-07-14T23:43:51.171744,15.22423594,.00018816,97.3969,202.4818,93.1038,267.0414,0,U,43152,999,47164,.21247205E-3,.4842E-4,0
